      2.10          N: GNSS NAV DATA                        RINEX VERSION / TYPE
fic2rin                                 02/26/2021 00:17:19 PGM / RUN BY / DATE
                                                            END OF HEADER
10 21  2 26  0  0  0.0-6.935885176063e-05-8.071765478235e-12 0.000000000000e+00
    4.300000000000e+01-1.253437500000e+02 4.288750072227e-09-1.074530713077e+00
   -6.660819053650e-06 6.494450266473e-03 6.942078471184e-06 5.153672859192e+03
    4.320000000000e+05 1.862645149231e-07-7.749703999421e-01-1.117587089539e-08
    9.683348827832e-01 2.498437500000e+02-2.582943028391e+00-8.053906906122e-09
   -4.614477925813e-10 1.000000000000e+00 2.146000000000e+03 0.000000000000e+00
    2.400000000000e+00 0.000000000000e+00 2.328306436539e-09 4.300000000000e+01
    4.248000000000e+05 4.000000000000e+00
15 21  2 26  0  0  0.0-1.669065095484e-04 2.614797267597e-12 0.000000000000e+00
    3.500000000000e+01-3.515625000000e+01 4.806271629077e-09 2.193197778714e+00
   -1.922249794006e-06 1.305496168789e-02 1.203641295433e-05 5.153579683304e+03
    4.320000000000e+05-3.725290298462e-08 1.610553548191e-01-3.129243850708e-07
    9.293106579534e-01 1.318437500000e+02 9.681740671246e-01-8.005333454271e-09
    3.943021385525e-10 1.000000000000e+00 2.146000000000e+03 0.000000000000e+00
    2.400000000000e+00 0.000000000000e+00-1.071020960808e-08 3.500000000000e+01
    4.248000000000e+05 4.000000000000e+00
 8 21  2 26  0  0  0.0-1.165503636003e-05-1.364242052659e-12 0.000000000000e+00
    8.800000000000e+01 1.296250000000e+02 4.116600044344e-09-3.088675559506e+00
    6.726011633873e-06 6.238031201065e-03 1.140311360359e-05 5.153568990707e+03
    4.320000000000e+05-8.195638656616e-08-2.884196272752e+00-1.862645149231e-09
    9.684100826242e-01 1.649375000000e+02-1.864089422807e-02-7.710678323559e-09
    1.264338379054e-10 1.000000000000e+00 2.146000000000e+03 0.000000000000e+00
    3.400000000000e+00 0.000000000000e+00 5.122274160385e-09 8.800000000000e+01
    4.248000000000e+05 4.000000000000e+00
 4 21  2 26  0  0  0.0-1.827110536397e-04-2.501110429876e-12 0.000000000000e+00
    8.500000000000e+01-1.287500000000e+01 4.224461680071e-09 2.679457560883e+00
   -6.295740604401e-07 1.134788733907e-03 1.245737075806e-05 5.153592573166e+03
    4.320000000000e+05 7.450580596924e-09 3.077582061532e-01 2.793967723846e-08
    9.608146192712e-01 1.387187500000e+02-2.995412460461e+00-7.762109037283e-09
    5.503800683962e-10 1.000000000000e+00 2.146000000000e+03 0.000000000000e+00
    2.400000000000e+00 0.000000000000e+00-4.190951585770e-09 8.530000000000e+02
    4.248000000000e+05 4.000000000000e+00
 9 21  2 26  0  0  0.0-3.262567333877e-04-3.410605131648e-12 0.000000000000e+00
    9.400000000000e+01-2.700000000000e+01 4.285178494885e-09-2.663607308702e+00
   -1.341104507446e-06 1.922352123074e-03 1.268461346626e-05 5.153568387985e+03
    4.320000000000e+05 2.980232238770e-08 2.576776268389e-01 3.725290298462e-09
    9.536601013711e-01 1.320312500000e+02 1.816341576089e+00-7.769966507436e-09
    4.785913638228e-10 1.000000000000e+00 2.146000000000e+03 0.000000000000e+00
    2.400000000000e+00 0.000000000000e+00 1.396983861923e-09 9.400000000000e+01
    4.248000000000e+05 4.000000000000e+00
31 21  2 26  0  0  0.0-1.022927463055e-04-2.273736754432e-12 0.000000000000e+00
    3.500000000000e+01 1.746875000000e+01 5.129142220790e-09-1.404379236775e-01
    1.138076186180e-06 9.965988108888e-03 4.593282938004e-06 5.153733331680e+03
    4.320000000000e+05 1.192092895508e-07 1.347172701573e+00 4.097819328308e-08
    9.559566399112e-01 2.856250000000e+02 2.485807487174e-01-8.501782704804e-09
    2.875119760278e-10 1.000000000000e+00 2.146000000000e+03 0.000000000000e+00
    2.400000000000e+00 0.000000000000e+00-1.303851604462e-08 3.500000000000e+01
    4.248000000000e+05 4.000000000000e+00
29 21  2 26  0  0  0.0-3.017536364496e-04-7.048583938740e-12 0.000000000000e+00
    5.800000000000e+01 1.110625000000e+02 3.881947412977e-09-2.993443766251e+00
    5.843117833138e-06 1.541449339129e-03 1.009926199913e-05 5.153685276031e+03
    4.320000000000e+05-1.303851604462e-08-2.795340650370e+00 5.960464477539e-08
    9.848658790227e-01 1.998750000000e+02 2.137406973706e+00-7.687463070837e-09
    1.935794919343e-10 1.000000000000e+00 2.146000000000e+03 0.000000000000e+00
    2.400000000000e+00 0.000000000000e+00-1.024454832077e-08 5.800000000000e+01
    4.248000000000e+05 4.000000000000e+00
27 21  2 26  0  0  0.0-8.345674723387e-05-7.275957614183e-12 0.000000000000e+00
    3.300000000000e+01 1.320625000000e+02 3.885518990319e-09-3.123069780278e+00
    6.690621376038e-06 9.129039593972e-03 1.128576695919e-05 5.153686532974e+03
    4.320000000000e+05-5.029141902924e-08-2.867706084612e+00-1.471489667892e-07
    9.769531862730e-01 1.711875000000e+02 5.787812768376e-01-7.592101955806e-09
    1.450060400836e-10 1.000000000000e+00 2.146000000000e+03 0.000000000000e+00
    2.400000000000e+00 0.000000000000e+00 1.862645149231e-09 3.300000000000e+01
    4.248000000000e+05 4.000000000000e+00
30 21  2 26  0  0  0.0-3.902786411345e-04-5.684341886081e-12 0.000000000000e+00
    6.700000000000e+01 2.240625000000e+01 5.544159507926e-09 2.869232873695e-01
    1.212581992149e-06 4.886743146926e-03 4.442408680916e-06 5.153730373383e+03
    4.320000000000e+05 6.146728992462e-08 1.349011343829e+00 7.078051567078e-08
    9.368532412065e-01 2.805937500000e+02-2.841025380294e+00-8.631073804583e-09
    3.067984936744e-10 1.000000000000e+00 2.146000000000e+03 0.000000000000e+00
    2.400000000000e+00 0.000000000000e+00 3.725290298462e-09 6.700000000000e+01
    4.248000000000e+05 4.000000000000e+00
24 21  2 26  0  0  0.0 1.836568117142e-06-4.547473508865e-13 0.000000000000e+00
    4.500000000000e+01 3.121875000000e+01 5.587018436029e-09 1.324058822673e+00
    1.547858119011e-06 1.092654187232e-02 4.952773451805e-06 5.153605957031e+03
    4.320000000000e+05-1.173466444016e-07 1.253667808502e+00 1.564621925354e-07
    9.350467495017e-01 2.702187500000e+02 7.318779623177e-01-8.749293014601e-09
    2.871548182937e-10 1.000000000000e+00 2.146000000000e+03 0.000000000000e+00
    2.400000000000e+00 0.000000000000e+00 2.793967723846e-09 4.500000000000e+01
    4.248000000000e+05 4.000000000000e+00
22 21  2 26  0  0  0.0-6.719185039401e-04 7.730704965070e-12 0.000000000000e+00
    9.300000000000e+01-1.481250000000e+02 5.140928426018e-09 2.153140707387e+00
   -7.629394531250e-06 7.002258091234e-03 4.975125193596e-06 5.153602849960e+03
    4.320000000000e+05 9.872019290924e-08-8.683164244987e-01 7.450580596924e-08
    9.337893202105e-01 2.663437500000e+02-1.029224061165e+00-8.472495770600e-09
   -5.143071372424e-10 1.000000000000e+00 2.146000000000e+03 0.000000000000e+00
    2.400000000000e+00 0.000000000000e+00-1.816079020500e-08 9.300000000000e+01
    4.248000000000e+05 4.000000000000e+00
19 21  2 26  0  0  0.0-3.364402800798e-05 5.002220859751e-12 0.000000000000e+00
    1.050000000000e+02 1.207500000000e+02 3.980880105350e-09-6.366328886923e-01
    6.396323442459e-06 9.043758967891e-03 1.036003232002e-05 5.153625333786e+03
    4.320000000000e+05-9.313225746155e-08-2.762378920444e+00-3.725290298462e-08
    9.814866479785e-01 1.930625000000e+02 1.786100876716e+00-7.913901074317e-09
    2.367955777720e-10 1.000000000000e+00 2.146000000000e+03 0.000000000000e+00
    2.400000000000e+00 0.000000000000e+00-1.583248376846e-08 1.050000000000e+02
    4.248000000000e+05 4.000000000000e+00
13 21  2 26  0  0  0.0 1.014159061015e-04 4.320099833421e-12 0.000000000000e+00
    9.000000000000e+01 9.375000000000e-01 4.023381875719e-09 2.530736260032e+00
    9.685754776001e-08 4.919835366309e-03 1.151487231255e-05 5.153684528351e+03
    4.320000000000e+05 8.568167686462e-08 4.048147717373e-01-8.381903171539e-08
    9.684707512999e-01 1.618125000000e+02 1.019605758078e+00-7.632460779770e-09
    6.003821511836e-10 1.000000000000e+00 2.146000000000e+03 0.000000000000e+00
    2.400000000000e+00 0.000000000000e+00-1.117587089539e-08 9.000000000000e+01
    4.248000000000e+05 4.000000000000e+00
32 21  2 26  0  0  0.0 1.988792791963e-05 1.136868377216e-12 0.000000000000e+00
    8.700000000000e+01-1.462500000000e+01 4.134100773320e-09-2.379163742085e+00
   -7.487833499908e-07 4.622377920896e-03 1.255981624126e-05 5.153647811890e+03
    4.320000000000e+05-1.098960638046e-07 2.673127169105e-01-2.980232238770e-08
    9.576700461386e-01 1.355312500000e+02-2.428601681968e+00-7.646747089138e-09
    5.585946962827e-10 1.000000000000e+00 2.146000000000e+03 0.000000000000e+00
    2.400000000000e+00 0.000000000000e+00 4.656612873077e-10 8.700000000000e+01
    4.248000000000e+05 4.000000000000e+00
21 21  2 26  0  0  0.0 9.864289313555e-05 3.183231456205e-12 0.000000000000e+00
    9.100000000000e+01 7.456250000000e+01 4.958420823844e-09-2.918954896176e+00
    3.971159458160e-06 2.429476915859e-02-1.322478055954e-07 5.153719072342e+03
    4.320000000000e+05 1.434236764908e-07-1.892282436245e+00 3.464519977570e-07
    9.559803391841e-01 3.759687500000e+02-1.184103966249e+00-8.306774581933e-09
    2.450102056585e-10 1.000000000000e+00 2.146000000000e+03 0.000000000000e+00
    2.400000000000e+00 0.000000000000e+00-1.024454832077e-08 9.100000000000e+01
    4.248000000000e+05 4.000000000000e+00
26 21  2 26  0  0  0.0 5.020434036851e-05 5.456968210638e-12 0.000000000000e+00
    5.900000000000e+01-2.865625000000e+01 5.095926551510e-09-1.320404418201e+00
   -1.691281795502e-06 5.752765573561e-03 8.400529623032e-06 5.153756399155e+03
    4.320000000000e+05 8.381903171539e-08 2.327802455527e+00-4.842877388000e-08
    9.428624961332e-01 2.040625000000e+02 2.839977467204e-01-8.227842722675e-09
   -4.864488339751e-10 1.000000000000e+00 2.146000000000e+03 0.000000000000e+00
    2.400000000000e+00 0.000000000000e+00 6.984919309616e-09 5.900000000000e+01
    4.248000000000e+05 4.000000000000e+00
